OBJECT_NAME,OBJECT_ID,EPOCH,MEAN_MOTION,ECCENTRICITY,INCLINATION,RA_OF_ASC_NODE,ARG_OF_PERICENTER,MEAN_ANOMALY,EPHEMERIS_TYPE,CLASSIFICATION_TYPE,NORAD_CAT_ID,ELEMENT_SET_NO,REV_AT_EPOCH,BSTAR,MEAN_MOTION_DOT,MEAN_MOTION_DDOT
ASTRA 2E,2013-056A,2026-07-07T07:02:17.301984,1.00269902,.000254,0.0678,322.4964,152.0180,304.8095,0,U,39285,999,4661,0,.165E-5,0
FM-6,2013-058A,2026-07-06T21:47:33.811008,1.00271504,.0002812,0.0450,67.8318,116.6951,310.9204,0,U,39360,999,4627,0,0,0
RADUGA-1M 3,2013-062A,2026-07-07T07:04:09.622848,1.00272157,.0001842,6.0060,72.0965,274.9600,79.2301,0,U,39375,999,4630,0,.165E-5,0
SES-8,2013-071A,2026-07-07T01:54:38.873376,1.00271044,.0002835,0.0561,263.9405,203.2619,301.5158,0,U,39460,999,4462,0,-.254E-5,0
INMARSAT 5-F1,2013-073A,2026-07-07T02:04:06.287232,1.00273396,.0000595,0.0200,35.5736,311.0910,32.0609,0,U,39476,999,4577,0,.42E-6,0
TKSAT-1 (TUPAC KATARI),2013-075A,2026-07-07T10:54:50.557248,1.00273326,.0002542,0.0425,122.3741,345.0055,254.5489,0,U,39481,999,4580,0,-.18E-5,0
EXPRESS-AM5,2013-077A,2026-07-07T14:24:47.323872,1.00271738,.0000056,0.0251,281.3516,148.0004,212.4462,0,U,39487,999,4656,0,-.265E-5,0
GSAT-14,2014-001A,2026-07-07T12:23:15.450720,1.00270758,.0001524,0.0169,283.6849,285.7638,335.8244,0,U,39498,999,4558,0,-.61E-6,0
THAICOM 6,2014-002A,2026-07-07T08:59:11.088096,1.00269975,.0004605,0.0686,105.2656,16.8242,16.5448,0,U,39500,999,4566,0,-.105E-5,0
TDRS 12,2014-004A,2026-07-07T11:50:24.074016,1.00275467,.0004027,3.9963,19.3996,202.8052,199.9307,0,U,39504,999,4448,0,-.257E-5,0
ABS-2,2014-006A,2026-07-07T12:23:30.428160,1.00271326,.0003512,0.0344,78.2304,12.5929,95.4528,0,U,39508,999,4548,0,-.71E-6,0
ATHENA-FIDUS,2014-006B,2026-07-07T10:30:04.904064,1.00272433,.0001463,0.0386,96.4764,25.9317,358.3147,0,U,39509,999,4529,0,.169E-5,0
TURKSAT 4A,2014-007A,2026-07-07T12:14:08.823840,1.00270617,.0000909,0.0754,283.0631,333.4562,254.4802,0,U,39522,999,4517,0,.161E-5,0
EXPRESS-AT1,2014-010A,2026-07-07T12:20:38.202720,1.00308424,.0004571,0.3067,85.5167,49.5932,40.3937,0,U,39612,999,4502,0,.16E-6,0
EXPRESS-AT2,2014-010B,2026-07-07T12:18:08.442144,1.00270060,.0000277,0.0173,302.0236,5.3304,218.6611,0,U,39613,999,4470,0,.94E-6,0
AMAZONAS 4A,2014-011A,2026-07-07T11:00:56.964096,1.00272417,.0004654,0.0621,205.6354,286.8211,244.2202,0,U,39616,999,4491,0,-.237E-5,0
ASTRA 5B,2014-011B,2026-07-07T12:08:37.326048,1.00270784,.0001912,0.0682,308.4617,160.6923,21.9690,0,U,39617,999,4487,0,.152E-5,0
IRNSS-1B,2014-017A,2026-07-05T17:31:20.708256,1.00272765,.00229695,28.8929,240.0829,195.5386,165.9835,0,U,39635,999,4498,0,.137E-5,0
LUCH-5V,2014-023A,2026-07-07T01:54:38.873376,1.00268009,.0002712,5.1790,69.5465,64.1093,274.7524,0,U,39727,999,4455,0,-.255E-5,0
KAZSAT-3,2014-023B,2026-07-07T12:18:53.371008,1.00272052,.0000118,0.0091,346.7398,292.6934,249.2718,0,U,39728,999,4266,0,.76E-6,0
EUTELSAT 3B,2014-030A,2026-07-07T08:37:43.145760,1.00273900,.0003935,0.0635,341.4273,127.8500,308.5828,0,U,39773,999,4426,0,.35E-6,0
ASIASAT 8 (AMOS-7),2014-046A,2026-07-07T12:32:14.337024,1.00271556,.0001446,0.0219,291.8311,174.7698,112.2639,0,U,40107,999,10235,0,-.318E-5,0
ASIASAT 6,2014-052A,2026-07-07T12:36:21.442752,1.00271122,.0000753,0.0125,311.3741,189.2166,93.9085,0,U,40141,999,4328,0,-.347E-5,0
OPTUS 10,2014-054A,2026-07-07T11:42:51.767424,1.00269718,.0001977,0.0468,73.1528,35.0391,148.9714,0,U,40146,999,4323,0,-.132E-5,0
MEASAT-3B,2014-054B,2026-07-07T10:45:33.418080,1.00269820,.0002538,0.0301,31.3461,59.5282,87.4033,0,U,40147,999,4311,0,-.226E-5,0
HIMAWARI-8,2014-060A,2026-07-07T12:02:38.557824,1.00270493,.0000894,0.0381,276.1938,204.3259,126.2760,0,U,40267,999,4296,0,-.26E-5,0
IRNSS-1C,2014-061A,2026-07-07T07:17:53.306880,1.00273588,.0022126,6.5677,88.5481,4.6264,24.5735,0,U,40269,999,4289,0,-.15E-5,0
INTELSAT 30 (IS-30),2014-062A,2026-07-07T10:39:41.338944,1.00269478,.0001323,0.0158,44.8986,344.7095,320.6821,0,U,40271,999,699,0,-.135E-5,0
ARSAT 1,2014-062B,2026-07-06T18:35:09.385152,1.00271293,.0001918,0.0288,303.9410,159.4802,28.3157,0,U,40272,999,4282,0,-.245E-5,0
EUTELSAT 53A,2014-064A,2026-07-07T13:59:56.961024,1.00273885,.000163,0.0199,295.9421,255.3125,357.2780,0,U,40277,999,4177,0,.113E-5,0
GSAT-16,2014-078A,2026-07-07T12:17:53.464704,1.00271161,.0007471,0.0365,264.8469,185.9281,74.2491,0,U,40332,999,4231,0,.1E-5,0
DIRECTV 14,2014-078B,2026-07-07T07:34:53.671008,1.00271459,.0000142,0.0109,41.1629,293.2333,325.3700,0,U,40333,999,4224,0,-.11E-5,0
