ASTRA 2E                
1 39285U 13056A   26188.29325581  .00000165  00000+0  00000+0 0  9992
2 39285   0.0678 322.4964 0002540 152.0180 304.8095  1.00269902 46613
FM-6                    
1 39360U 13058A   26187.90803022  .00000000  00000+0  00000+0 0  9994
2 39360   0.0450  67.8318 0002812 116.6951 310.9204  1.00271504 46275
RADUGA-1M 3             
1 39375U 13062A   26188.29455582  .00000165  00000+0  00000+0 0  9994
2 39375   6.0060  72.0965 0001842 274.9600  79.2301  1.00272157 46303
SES-8                   
1 39460U 13071A   26188.07961659 -.00000254  00000+0  00000+0 0  9992
2 39460   0.0561 263.9405 0002835 203.2619 301.5158  1.00271044 44624
INMARSAT 5-F1           
1 39476U 13073A   26188.08618388  .00000042  00000+0  00000+0 0  9994
2 39476   0.0200  35.5736 0000595 311.0910  32.0609  1.00273396 45770
TKSAT-1 (TUPAC KATARI)  
1 39481U 13075A   26188.45475182 -.00000180  00000+0  00000+0 0  9990
2 39481   0.0425 122.3741 0002542 345.0055 254.5489  1.00273326 45801
EXPRESS-AM5             
1 39487U 13077A   26188.60054773 -.00000265  00000+0  00000+0 0  9998
2 39487   0.0251 281.3516 0000056 148.0004 212.4462  1.00271738 46566
GSAT-14                 
1 39498U 14001A   26188.51615105 -.00000061  00000+0  00000+0 0  9994
2 39498   0.0169 283.6849 0001524 285.7638 335.8244  1.00270758 45583
THAICOM 6               
1 39500U 14002A   26188.37443389 -.00000105  00000+0  00000+0 0  9995
2 39500   0.0686 105.2656 0004605  16.8242  16.5448  1.00269975 45660
TDRS 12                 
1 39504U 14004A   26188.49333419 -.00000257  00000+0  00000+0 0  9994
2 39504   3.9963  19.3996 0004027 202.8052 199.9307  1.00275467 44482
ABS-2                   
1 39508U 14006A   26188.51632440 -.00000071  00000+0  00000+0 0  9993
2 39508   0.0344  78.2304 0003512  12.5929  95.4528  1.00271326 45487
ATHENA-FIDUS            
1 39509U 14006B   26188.43755676  .00000169  00000+0  00000+0 0  9999
2 39509   0.0386  96.4764 0001463  25.9317 358.3147  1.00272433 45295
TURKSAT 4A              
1 39522U 14007A   26188.50982435  .00000161  00000+0  00000+0 0  9990
2 39522   0.0754 283.0631 0000909 333.4562 254.4802  1.00270617 45172
EXPRESS-AT1             
1 39612U 14010A   26188.51433105  .00000016  00000+0  00000+0 0  9999
2 39612   0.3067  85.5167 0004571  49.5932  40.3937  1.00308424 45029
EXPRESS-AT2             
1 39613U 14010B   26188.51259771  .00000094  00000+0  00000+0 0  9991
2 39613   0.0173 302.0236 0000277   5.3304 218.6611  1.00270060 44708
AMAZONAS 4A             
1 39616U 14011A   26188.45899264 -.00000237  00000+0  00000+0 0  9995
2 39616   0.0621 205.6354 0004654 286.8211 244.2202  1.00272417 44916
ASTRA 5B                
1 39617U 14011B   26188.50598757  .00000152  00000+0  00000+0 0  9990
2 39617   0.0682 308.4617 0001912 160.6923  21.9690  1.00270784 44872
IRNSS-1B                
1 39635U 14017A   26186.73010079  .00000137  00000+0  00000+0 0  9998
2 39635  28.8929 240.0829 0022969 195.5386 165.9835  1.00272765 44988
LUCH-5V                 
1 39727U 14023A   26188.07961659 -.00000255  00000+0  00000+0 0  9997
2 39727   5.1790  69.5465 0002712  64.1093 274.7524  1.00268009 44557
KAZSAT-3                
1 39728U 14023B   26188.51311772  .00000076  00000+0  00000+0 0  9992
2 39728   0.0091 346.7398 0000118 292.6934 249.2718  1.00272052 42666
EUTELSAT 3B             
1 39773U 14030A   26188.35952715  .00000035  00000+0  00000+0 0  9995
2 39773   0.0635 341.4273 0003935 127.8500 308.5828  1.00273900 44264
ASIASAT 8 (AMOS-7)      
1 40107U 14046A   26188.52238816 -.00000318  00000+0  00000+0 0  9998
2 40107   0.0219 291.8311 0001446 174.7698 112.2639  1.00271556102350
ASIASAT 6               
1 40141U 14052A   26188.52524818 -.00000347  00000+0  00000+0 0  9995
2 40141   0.0125 311.3741 0000753 189.2166  93.9085  1.00271122 43285
OPTUS 10                
1 40146U 14054A   26188.48809916 -.00000132  00000+0  00000+0 0  9994
2 40146   0.0468  73.1528 0001977  35.0391 148.9714  1.00269718 43236
MEASAT-3B               
1 40147U 14054B   26188.44830345 -.00000226  00000+0  00000+0 0  9995
2 40147   0.0301  31.3461 0002538  59.5282  87.4033  1.00269820 43111
HIMAWARI-8              
1 40267U 14060A   26188.50183516 -.00000260  00000+0  00000+0 0  9991
2 40267   0.0381 276.1938 0000894 204.3259 126.2760  1.00270493 42966
IRNSS-1C                
1 40269U 14061A   26188.30408920 -.00000150  00000+0  00000+0 0  9999
2 40269   6.5677  88.5481 0022126   4.6264  24.5735  1.00273588 42896
INTELSAT 30 (IS-30)     
1 40271U 14062A   26188.44422846 -.00000135  00000+0  00000+0 0  9994
2 40271   0.0158  44.8986 0001323 344.7095 320.6821  1.00269478  6993
ARSAT 1                 
1 40272U 14062B   26187.77441418 -.00000245  00000+0  00000+0 0  9998
2 40272   0.0288 303.9410 0001918 159.4802  28.3157  1.00271293 42820
EUTELSAT 53A            
1 40277U 14064A   26188.58329816  .00000113  00000+0  00000+0 0  9995
2 40277   0.0199 295.9421 0001630 255.3125 357.2780  1.00273885 41771
GSAT-16                 
1 40332U 14078A   26188.51242436  .00000100  00000+0  00000+0 0  9993
2 40332   0.0365 264.8469 0007471 185.9281  74.2491  1.00271161 42316
DIRECTV 14              
1 40333U 14078B   26188.31589897 -.00000110  00000+0  00000+0 0  9999
2 40333   0.0109  41.1629 0000142 293.2333 325.3700  1.00271459 42241
